STARLINK-30069          
1 56834U 23079M   26067.48212902 -.00002416  00000+0 -80472-4 0  9995
2 56834  42.9986 110.4464 0000469 272.6695  87.4103 15.26726881152740
STARLINK-31547          
1 59364U 24060S   26068.55542380 -.00000157  00000+0  38318-5 0  9994
2 59364  43.0032 249.2555 0001191 266.1269  93.9446 15.27570970110175
